<?xml version="1.0" encoding="UTF-8"?>
<kml xmlns="http://www.opengis.net/kml/2.2">
  <Document>
    <name>Kota Administrasi Depok, Jawa Barat </name>
    <Style id="poly-000000-1200-77-nodesc-normal">
      <LineStyle>
        <color>ff000000</color>
        <width>1.2</width>
      </LineStyle>
      <PolyStyle>
        <color>4d000000</color>
        <fill>1</fill>
        <outline>1</outline>
      </PolyStyle>
      <BalloonStyle>
        <text><![CDATA[<h3>$[name]</h3>]]></text>
      </BalloonStyle>
    </Style>
    <Style id="poly-000000-1200-77-nodesc-highlight">
      <LineStyle>
        <color>ff000000</color>
        <width>1.8</width>
      </LineStyle>
      <PolyStyle>
        <color>4d000000</color>
        <fill>1</fill>
        <outline>1</outline>
      </PolyStyle>
      <BalloonStyle>
        <text><![CDATA[<h3>$[name]</h3>]]></text>
      </BalloonStyle>
    </Style>
    <StyleMap id="poly-000000-1200-77-nodesc">
      <Pair>
        <key>normal</key>
        <styleUrl>#poly-000000-1200-77-nodesc-normal</styleUrl>
      </Pair>
      <Pair>
        <key>highlight</key>
        <styleUrl>#poly-000000-1200-77-nodesc-highlight</styleUrl>
      </Pair>
    </StyleMap>
    <Placemark>
      <name>Kota Administrasi Depok</name>
      <styleUrl>#poly-000000-1200-77-nodesc</styleUrl>
      <Polygon>
        <outerBoundaryIs>
          <LinearRing>
            <tessellate>1</tessellate>
            <coordinates>
              106.7782631,-6.3173584,0
              106.7793888,-6.3181685,0
              106.778788,-6.3200879,0
              106.7792601,-6.3215382,0
              106.777801,-6.323287,0
              106.7790455,-6.3237989,0
              106.7789597,-6.3267846,0
              106.7784018,-6.3272112,0
              106.7776293,-6.326614,0
              106.7768139,-6.3271685,0
              106.7776293,-6.3276804,0
              106.7776722,-6.3294718,0
              106.7765564,-6.3302396,0
              106.7759985,-6.3316472,0
              106.776771,-6.3324576,0
              106.7753119,-6.3331827,0
              106.7759985,-6.3343343,0
              106.7756552,-6.3354433,0
              106.7765135,-6.3359978,0
              106.7746681,-6.3357419,0
              106.7743677,-6.336595,0
              106.7750544,-6.3371068,0
              106.7748398,-6.3377892,0
              106.7726511,-6.3378319,0
              106.7725653,-6.3385143,0
              106.7736811,-6.3387703,0
              106.7728657,-6.3391541,0
              106.7735094,-6.3402631,0
              106.7728228,-6.3415427,0
              106.7737669,-6.342737,0
              106.772222,-6.3443151,0
              106.7745823,-6.344699,0
              106.7741961,-6.3453814,0
              106.7746252,-6.3459359,0
              106.7735523,-6.3458506,0
              106.7732948,-6.3469596,0
              106.773724,-6.347642,0
              106.7738098,-6.3500732,0
              106.7732519,-6.3504997,0
              106.7720074,-6.3500305,0
              106.7718357,-6.3522058,0
              106.7709345,-6.3516513,0
              106.7701191,-6.3521205,0
              106.7701191,-6.3534853,0
              106.7713207,-6.3542104,0
              106.7710632,-6.3550208,0
              106.7712349,-6.3568975,0
              106.7698616,-6.3564709,0
              106.7616219,-6.3569828,0
              106.7599053,-6.3583476,0
              106.7599053,-6.3596272,0
              106.7594761,-6.3609067,0
              106.7544979,-6.3609067,0
              106.7518372,-6.3600537,0
              106.747889,-6.360992,0
              106.7334694,-6.3603949,0
              106.7308945,-6.3602243,0
              106.7197365,-6.3605655,0
              106.7207665,-6.3624421,0
              106.7204231,-6.3644041,0
              106.7178911,-6.3640202,0
              106.7166895,-6.3654277,0
              106.7184919,-6.3670058,0
              106.7169899,-6.3698207,0
              106.7189211,-6.3720385,0
              106.7223508,-6.3737435,0
              106.722737,-6.3746391,0
              106.721707,-6.3751936,0
              106.7209775,-6.3763025,0
              106.721707,-6.3765584,0
              106.7229945,-6.3763025,0
              106.723767,-6.3768569,0
              106.7225654,-6.3775393,0
              106.722222,-6.3789041,0
              106.7214496,-6.3798851,0
              106.7233378,-6.3811645,0
              106.7227799,-6.3816763,0
              106.7228228,-6.3833397,0
              106.7219216,-6.3846618,0
              106.7219645,-6.3861971,0
              106.7226941,-6.3860266,0
              106.723252,-6.3869222,0
              106.7236812,-6.3867516,0
              106.7245824,-6.3867089,0
              106.724754,-6.3858986,0
              106.7258698,-6.3854295,0
              106.7266423,-6.3859413,0
              106.7279298,-6.3858133,0
              106.7280585,-6.386453,0
              106.7267711,-6.3870501,0
              106.7258269,-6.3878605,0
              106.7261702,-6.3887987,0
              106.7275006,-6.3886708,0
              106.7281873,-6.3876046,0
              106.7286164,-6.389737,0
              106.7270285,-6.3892679,0
              106.7268998,-6.3915283,0
              106.7272002,-6.3919974,0
              106.727286,-6.3931489,0
              106.7285306,-6.3945136,0
              106.727329,-6.3943004,0
              106.7259557,-6.395196,0
              106.7265136,-6.3965181,0
              106.7274577,-6.3958357,0
              106.7293031,-6.3964328,0
              106.7284448,-6.3987358,0
              106.7309338,-6.3992902,0
              106.7296893,-6.3998873,0
              106.729861,-6.4020623,0
              106.7309338,-6.4020623,0
              106.7314917,-6.4025315,0
              106.7310197,-6.4027447,0
              106.7313201,-6.4045786,0
              106.7323501,-6.4047918,0
              106.7320496,-6.4056021,0
              106.7328221,-6.4054315,0
              106.7321355,-6.4065403,0
              106.7314059,-6.407308,0
              106.7322642,-6.4085021,0
              106.7317063,-6.4095256,0
              106.7307622,-6.4095683,0
              106.7309768,-6.4106345,0
              106.7306764,-6.4130227,0
              106.7302901,-6.4145153,0
              106.7307622,-6.4147286,0
              106.7325217,-6.4142168,0
              106.7353112,-6.4176285,0
              106.7360408,-6.4179697,0
              106.7362983,-6.4183962,0
              106.7366416,-6.4181403,0
              106.7370707,-6.418652,0
              106.7372424,-6.4198035,0
              106.7354829,-6.4203579,0
              106.7362124,-6.4208696,0
              106.735912,-6.4218932,0
              106.7354829,-6.4226608,0
              106.7358691,-6.4238975,0
              106.7366845,-6.4238122,0
              106.7368562,-6.4244519,0
              106.7357404,-6.4246225,0
              106.7353112,-6.4262857,0
              106.7331654,-6.426371,0
              106.7326505,-6.4270107,0
              106.7334659,-6.4287165,0
              106.7326934,-6.4293135,0
              106.7347748,-6.4303157,0
              106.7361481,-6.431595,0
              106.7364914,-6.4339832,0
              106.7377788,-6.43748,0
              106.7433578,-6.4387594,0
              106.766103,-6.4369683,0
              106.7723686,-6.4382477,0
              106.7825825,-6.4390153,0
              106.7880756,-6.43748,0
              106.7888481,-6.4388447,0
              106.787389,-6.4411475,0
              106.7917663,-6.4408916,0
              106.7917663,-6.4420004,0
              106.7941696,-6.4419151,0
              106.7953712,-6.4478853,0
              106.7945988,-6.4516379,0
              106.8003494,-6.4529172,0
              106.8050701,-6.4425121,0
              106.8117649,-6.4443032,0
              106.8181164,-6.4444737,0
              106.8230945,-6.4430238,0
              106.8242103,-6.4464354,0
              106.8229229,-6.4489087,0
              106.8219787,-6.4484823,0
              106.820348,-6.451382,0
              106.8209488,-6.4539407,0
              106.8230945,-6.4556464,0
              106.8244678,-6.4540259,0
              106.8252403,-6.455817,0
              106.8227512,-6.4649425,0
              106.823631,-6.4661152,0
              106.8271071,-6.4604011,0
              106.8280084,-6.4556251,0
              106.8318707,-6.4554119,0
              106.8319995,-6.4533223,0
              106.8350465,-6.4546443,0
              106.8357331,-6.4533223,0
              106.8347461,-6.453237,0
              106.8339736,-6.4522562,0
              106.8347031,-6.4517019,0
              106.8350036,-6.4504652,0
              106.836291,-6.4507211,0
              106.8379218,-6.4499961,0
              106.8389947,-6.449058,0
              106.8398101,-6.4501241,0
              106.8419988,-6.4493138,0
              106.8429,-6.4479919,0
              106.8444878,-6.4471816,0
              106.8440587,-6.4459023,0
              106.8460757,-6.4436848,0
              106.8427712,-6.4419364,0
              106.8430287,-6.4385675,0
              106.8442733,-6.4367764,0
              106.8460328,-6.4368191,0
              106.8522984,-6.4363926,0
              106.8531567,-6.4412541,0
              106.8526418,-6.4492712,0
              106.85556,-6.4565206,0
              106.8618256,-6.4560089,0
              106.8684346,-6.4586527,0
              106.8748719,-6.4591644,0
              106.8784768,-6.4573734,0
              106.8782193,-6.4588233,0
              106.8805367,-6.4576293,0
              106.8795068,-6.4531091,0
              106.881395,-6.4549001,0
              106.8835408,-6.4482477,0
              106.8855149,-6.4456038,0
              106.8848283,-6.4440686,0
              106.886974,-6.442704,0
              106.8868024,-6.438866,0
              106.8881757,-6.4369896,0
              106.8874032,-6.4353691,0
              106.8907506,-6.4351133,0
              106.8916089,-6.4332369,0
              106.8899781,-6.4326398,0
              106.8923814,-6.4287165,0
              106.8919522,-6.4274371,0
              106.8940122,-6.4257313,0
              106.8964154,-6.4265842,0
              106.8988187,-6.4260724,0
              106.8995911,-6.4245372,0
              106.8992478,-6.4224902,0
              106.900192,-6.4207844,0
              106.900192,-6.4191638,0
              106.9031102,-6.4181403,0
              106.9040543,-6.4190785,0
              106.9061143,-6.4156668,0
              106.9051701,-6.4138756,0
              106.9055135,-6.4125109,0
              106.9079167,-6.4154962,0
              106.9083459,-6.4111462,0
              106.9104058,-6.4135345,0
              106.9139249,-6.4125109,0
              106.9142682,-6.4153256,0
              106.9164998,-6.4081609,0
              106.9174439,-6.3980108,0
              106.9053418,-6.3942578,0
              106.899162,-6.4022756,0
              106.8983895,-6.3959637,0
              106.8981749,-6.394471,0
              106.9005353,-6.3948548,0
              106.9045264,-6.3922106,0
              106.903711,-6.3893105,0
              106.9039256,-6.3886708,0
              106.9043548,-6.3879031,0
              106.9047839,-6.3851309,0
              106.9039685,-6.3803542,0
              106.907788,-6.3780085,0
              106.9089467,-6.3748097,0
              106.9103629,-6.3705021,0
              106.910835,-6.3681563,0
              106.9137103,-6.3670047,0
              106.9142829,-6.3656006,0
              106.9067151,-6.3626543,0
              106.8979604,-6.3685401,0
              106.8942696,-6.3676018,0
              106.8798501,-6.3646163,0
              106.8722112,-6.3620572,0
              106.8708379,-6.3555742,0
              106.8628556,-6.3583892,0
              106.85556,-6.3547212,0
              106.8488652,-6.3398782,0
              106.8406255,-6.3420961,0
              106.8396814,-6.3502001,0
              106.8355614,-6.35438,0
              106.82818,-6.3568538,0
              106.8189103,-6.3563419,0
              106.8144042,-6.359754,0
              106.8123228,-6.3621425,0
              106.8101251,-6.3640109,0
              106.799584,-6.3656441,0
              106.7933183,-6.3637675,0
              106.7910867,-6.3622747,0
              106.7909151,-6.3599288,0
              106.7916017,-6.3528487,0
              106.7921382,-6.3503109,0
              106.7937046,-6.3477731,0
              106.7962151,-6.3455765,0
              106.798554,-6.3423563,0
              106.8005601,-6.3396659,0
              106.8015632,-6.3344819,0
              106.8018796,-6.3294685,0
              106.8086381,-6.3172631,0
              106.7782631,-6.3173584,0
            </coordinates>
          </LinearRing>
        </outerBoundaryIs>
      </Polygon>
    </Placemark>
  </Document>
</kml>
