<?xml version="1.0" encoding="UTF-8"?>
<kml xmlns="http://www.opengis.net/kml/2.2">
  <Document>
    <name>Kebun Binatang Ragunan</name>
    <Style id="poly-000000-1200-77-nodesc-normal">
      <LineStyle>
        <color>ff000000</color>
        <width>1.2</width>
      </LineStyle>
      <PolyStyle>
        <color>4d000000</color>
        <fill>1</fill>
        <outline>1</outline>
      </PolyStyle>
      <BalloonStyle>
        <text><![CDATA[<h3>$[name]</h3>]]></text>
      </BalloonStyle>
    </Style>
    <Style id="poly-000000-1200-77-nodesc-highlight">
      <LineStyle>
        <color>ff000000</color>
        <width>1.8</width>
      </LineStyle>
      <PolyStyle>
        <color>4d000000</color>
        <fill>1</fill>
        <outline>1</outline>
      </PolyStyle>
      <BalloonStyle>
        <text><![CDATA[<h3>$[name]</h3>]]></text>
      </BalloonStyle>
    </Style>
    <StyleMap id="poly-000000-1200-77-nodesc">
      <Pair>
        <key>normal</key>
        <styleUrl>#poly-000000-1200-77-nodesc-normal</styleUrl>
      </Pair>
      <Pair>
        <key>highlight</key>
        <styleUrl>#poly-000000-1200-77-nodesc-highlight</styleUrl>
      </Pair>
    </StyleMap>
    <Placemark>
      <name>Kebun Binatang Ragunan</name>
      <styleUrl>#poly-000000-1200-77-nodesc</styleUrl>
      <Polygon>
        <outerBoundaryIs>
          <LinearRing>
            <tessellate>1</tessellate>
            <coordinates>
              106.8166841,-6.3066892,0
              106.8168692,-6.3069798,0
              106.8168397,-6.3074197,0
              106.8164373,-6.3079582,0
              106.8161691,-6.3079902,0
              106.8159223,-6.3082781,0
              106.8158472,-6.3090353,0
              106.8157507,-6.3096111,0
              106.8158258,-6.3102296,0
              106.8169416,-6.3106561,0
              106.8170703,-6.3113386,0
              106.8175853,-6.3114666,0
              106.8176712,-6.3142712,0
              106.8162979,-6.3142392,0
              106.8164695,-6.3167558,0
              106.8178214,-6.3171823,0
              106.8210615,-6.3175662,0
              106.8227674,-6.3174276,0
              106.823513,-6.317401,0
              106.8247092,-6.3177262,0
              106.8252457,-6.3145378,0
              106.8248166,-6.3140899,0
              106.8244947,-6.3133434,0
              106.8247522,-6.3120638,0
              106.8255247,-6.3121491,0
              106.8258037,-6.3112853,0
              106.8265225,-6.3113972,0
              106.8268551,-6.3101229,0
              106.8270696,-6.3087366,0
              106.8245376,-6.3084381,0
              106.8245483,-6.3064012,0
              106.822998,-6.3063692,0
              106.8223382,-6.3066252,0
              106.8205036,-6.3065186,0
              106.8205787,-6.3059641,0
              106.820289,-6.3055375,0
              106.8159975,-6.3048976,0
              106.8166841,-6.3066892,0
            </coordinates>
          </LinearRing>
        </outerBoundaryIs>
      </Polygon>
    </Placemark>
  </Document>
</kml>
