<?xml version="1.0" encoding="UTF-8"?>
<kml xmlns="http://www.opengis.net/kml/2.2">
  <Document>
    <name>Taman Kota Jakarta</name>
    <Style id="poly-000000-1200-77-nodesc-normal">
      <LineStyle>
        <color>ff000000</color>
        <width>1.2</width>
      </LineStyle>
      <PolyStyle>
        <color>4d000000</color>
        <fill>1</fill>
        <outline>1</outline>
      </PolyStyle>
      <BalloonStyle>
        <text><![CDATA[<h3>$[name]</h3>]]></text>
      </BalloonStyle>
    </Style>
    <Style id="poly-000000-1200-77-nodesc-highlight">
      <LineStyle>
        <color>ff000000</color>
        <width>1.8</width>
      </LineStyle>
      <PolyStyle>
        <color>4d000000</color>
        <fill>1</fill>
        <outline>1</outline>
      </PolyStyle>
      <BalloonStyle>
        <text><![CDATA[<h3>$[name]</h3>]]></text>
      </BalloonStyle>
    </Style>
    <StyleMap id="poly-000000-1200-77-nodesc">
      <Pair>
        <key>normal</key>
        <styleUrl>#poly-000000-1200-77-nodesc-normal</styleUrl>
      </Pair>
      <Pair>
        <key>highlight</key>
        <styleUrl>#poly-000000-1200-77-nodesc-highlight</styleUrl>
      </Pair>
    </StyleMap>
    <Placemark>
      <name>Taman Monas</name>
      <styleUrl>#poly-000000-1200-77-nodesc</styleUrl>
      <Polygon>
        <outerBoundaryIs>
          <LinearRing>
            <tessellate>1</tessellate>
            <coordinates>
              106.8233764,-6.171639,0
              106.8231833,-6.1801082,0
              106.824004,-6.1804442,0
              106.8260264,-6.1803109,0
              106.8311011,-6.1801296,0
              106.830672,-6.178967,0
              106.8299424,-6.1779323,0
              106.8297922,-6.1733883,0
              106.8293202,-6.1731429,0
              106.8290627,-6.1727696,0
              106.8291914,-6.171639,0
              106.8233764,-6.171639,0
            </coordinates>
          </LinearRing>
        </outerBoundaryIs>
      </Polygon>
    </Placemark>
    <Placemark>
      <name>Gelora Bung Karno</name>
      <styleUrl>#poly-000000-1200-77-nodesc</styleUrl>
      <Polygon>
        <outerBoundaryIs>
          <LinearRing>
            <tessellate>1</tessellate>
            <coordinates>
              106.7987594,-6.2156143,0
              106.7988881,-6.2209471,0
              106.8013772,-6.2219177,0
              106.8036946,-6.2232296,0
              106.8051967,-6.222131,0
              106.8068704,-6.2209898,0
              106.8068918,-6.2157636,0
              106.7987594,-6.2156143,0
            </coordinates>
          </LinearRing>
        </outerBoundaryIs>
      </Polygon>
    </Placemark>
    <Placemark>
      <name>Taman Mini Indonesia</name>
      <styleUrl>#poly-000000-1200-77-nodesc</styleUrl>
      <Polygon>
        <outerBoundaryIs>
          <LinearRing>
            <tessellate>1</tessellate>
            <coordinates>
              106.8882815,-6.3053768,0
              106.8963497,-6.3068697,0
              106.9021433,-6.3045023,0
              106.9043748,-6.3011964,0
              106.8898908,-6.2959285,0
              106.8856314,-6.2947874,0
              106.8818013,-6.294926,0
              106.8839899,-6.3020922,0
              106.8860069,-6.3040331,0
              106.8882815,-6.3053768,0
            </coordinates>
          </LinearRing>
        </outerBoundaryIs>
      </Polygon>
    </Placemark>
    <Placemark>
      <name>Tebet Echo Park</name>
      <styleUrl>#poly-000000-1200-77-nodesc</styleUrl>
      <Polygon>
        <outerBoundaryIs>
          <LinearRing>
            <tessellate>1</tessellate>
            <coordinates>
              106.8508364,-6.232829,0
              106.8507291,-6.2344075,0
              106.8522258,-6.2353354,0
              106.8526925,-6.236178,0
              106.8516518,-6.2398895,0
              106.8526925,-6.2420865,0
              106.8539692,-6.2420225,0
              106.8531967,-6.2410306,0
              106.852832,-6.2399321,0
              106.8537332,-6.2369458,0
              106.8532611,-6.2345995,0
              106.8523062,-6.2333943,0
              106.8508364,-6.232829,0
            </coordinates>
          </LinearRing>
        </outerBoundaryIs>
      </Polygon>
    </Placemark>
    <Placemark>
      <name>Kebun Binatang Ragunan</name>
      <styleUrl>#poly-000000-1200-77-nodesc</styleUrl>
      <Polygon>
        <outerBoundaryIs>
          <LinearRing>
            <tessellate>1</tessellate>
            <coordinates>
              106.8166841,-6.3066892,0
              106.8168692,-6.3069798,0
              106.8168397,-6.3074197,0
              106.8164373,-6.3079582,0
              106.8161691,-6.3079902,0
              106.8159223,-6.3082781,0
              106.8158472,-6.3090353,0
              106.8157507,-6.3096111,0
              106.8158258,-6.3102296,0
              106.8169416,-6.3106561,0
              106.8170703,-6.3113386,0
              106.8175853,-6.3114666,0
              106.8176712,-6.3142712,0
              106.8162979,-6.3142392,0
              106.8164695,-6.3167558,0
              106.8178214,-6.3171823,0
              106.8210615,-6.3175662,0
              106.8227674,-6.3174276,0
              106.823513,-6.317401,0
              106.8247092,-6.3177262,0
              106.8252457,-6.3145378,0
              106.8248166,-6.3140899,0
              106.8244947,-6.3133434,0
              106.8247522,-6.3120638,0
              106.8255247,-6.3121491,0
              106.8258037,-6.3112853,0
              106.8265225,-6.3113972,0
              106.8268551,-6.3101229,0
              106.8270696,-6.3087366,0
              106.8245376,-6.3084381,0
              106.8245483,-6.3064012,0
              106.822998,-6.3063692,0
              106.8223382,-6.3066252,0
              106.8205036,-6.3065186,0
              106.8205787,-6.3059641,0
              106.820289,-6.3055375,0
              106.8159975,-6.3048976,0
              106.8166841,-6.3066892,0
            </coordinates>
          </LinearRing>
        </outerBoundaryIs>
      </Polygon>
    </Placemark>
  </Document>
</kml>
